NORAD_CAT_ID,OBJECT_NAME,OBJECT_TYPE,EPOCH,MEAN_MOTION,ECCENTRICITY,INCLINATION,RA_OF_ASC_NODE,ARG_OF_PERICENTER,MEAN_ANOMALY,BSTAR,MEAN_MOTION_DOT,MEAN_MOTION_DDOT,TLE_LINE0,TLE_LINE1,TLE_LINE2,SEMIMAJOR_AXIS,PERIOD,APOGEE,PERIGEE,DECAYED
52105.0,STARLINK-3706,PAYLOAD,2024-03-04 11:58:04,15.08855743,0.0001633,53.2177,139.5226,98.4923,261.6254,0.00019416,2.805e-05,0.0,0 STARLINK-3706,1 52105U 22029T   24064.49866865  .00002805  00000-0  19416-3 0  9995,2 52105  53.2177 139.5226 0001633  98.4923 261.6254 15.08855743109794,6917.832,95.437,540.827,538.568,0.0
52105.0,STARLINK-3706,PAYLOAD,2024-03-05 10:13:31,15.08822982,0.0001342,53.2176,135.356,73.6678,286.4462,-2.9521e-05,-7.57e-06,0.0,0 STARLINK-3706,1 52105U 22029T   24065.42606182 -.00000757  00000-0 -29521-4 0  9998,2 52105  53.2176 135.3560 0001342  73.6678 286.4462 15.08822982109938,6917.932,95.439,540.726,538.869,0.0
52105.0,STARLINK-3706,PAYLOAD,2024-03-06 03:42:46,15.08834797,0.0001334,53.2173,132.0846,83.6203,276.4942,-0.00011458,-2.111e-05,0.0,0 STARLINK-3706,1 52105U 22029T   24066.15470367 -.00002111  00000-0 -11458-3 0  9998,2 52105  53.2173 132.0846 0001334  83.6203 276.4942 15.08834797110045,6917.896,95.438,540.684,538.838,0.0
52105.0,STARLINK-3706,PAYLOAD,2024-03-06 11:39:40,15.08850698,0.0001531,53.2169,130.5993,71.2506,288.8652,-1.6111e-06,-3.14e-06,0.0,0 STARLINK-3706,1 52105U 22029T   24066.48588936 -.00000314  00000-0 -16111-5 0  9992,2 52105  53.2169 130.5993 0001531  71.2506 288.8652 15.08850698110092,6917.848,95.437,540.772,538.654,0.0
52105.0,STARLINK-3706,PAYLOAD,2024-03-06 13:15:03,15.08852748,0.0001511,53.217,130.3013,77.6404,282.4758,1.4535e-05,-5.7e-07,0.0,0 STARLINK-3706,1 52105U 22029T   24066.55212700 -.00000057  00000-0  14535-4 0  9993,2 52105  53.2170 130.3013 0001511  77.6404 282.4758 15.08852748110107,6917.841,95.437,540.752,538.661,0.0
52105.0,STARLINK-3706,PAYLOAD,2024-03-07 03:33:33,15.08817015,0.0002128,53.2175,127.6247,43.4355,316.6805,0.00046048,7.043e-05,0.0,0 STARLINK-3706,1 52105U 22029T   24067.14829907  .00007043  00000-0  46048-3 0  9996,2 52105  53.2175 127.6247 0002128  43.4355 316.6805 15.08817015110191,6917.951,95.439,541.288,538.344,0.0
52105.0,STARLINK-3706,PAYLOAD,2024-03-07 11:30:28,15.08836277,0.0001752,53.2174,126.1382,61.269,298.8478,0.00032713,4.922e-05,0.0,0 STARLINK-3706,1 52105U 22029T   24067.47949473  .00004922  00000-0  32713-3 0  9990,2 52105  53.2174 126.1382 0001752  61.2690 298.8478 15.08836277110240,6917.892,95.438,540.969,538.545,0.0
52105.0,STARLINK-3706,PAYLOAD,2024-03-08 09:45:52,15.08843923,0.0001902,53.2173,121.9764,62.5387,297.5798,5.3091e-05,5.57e-06,0.0,0 STARLINK-3706,1 52105U 22029T   24068.40685818  .00000557  00000-0  53091-4 0  9997,2 52105  53.2173 121.9764 0001902  62.5387 297.5798 15.08843923110382,6917.868,95.437,541.049,538.418,0.0
52105.0,STARLINK-3706,PAYLOAD,2024-03-09 12:47:25,15.08844883,0.0001837,53.2175,116.9193,72.3158,287.8035,-1.047e-05,-4.55e-06,0.0,0 STARLINK-3706,1 52105U 22029T   24069.53293452 -.00000455  00000-0 -10470-4 0  9994,2 52105  53.2175 116.9193 0001837  72.3158 287.8035 15.08844883110557,6917.865,95.437,541.001,538.46,0.0
52105.0,STARLINK-3706,PAYLOAD,2024-03-10 09:27:26,15.08847951,0.0001472,53.2169,113.0507,95.9947,264.1213,-9.3755e-05,-1.78e-05,0.0,0 STARLINK-3706,1 52105U 22029T   24070.39405312 -.00001780  00000-0 -93755-4 0  9999,2 52105  53.2169 113.0507 0001472  95.9947 264.1213 15.08847951110688,6917.856,95.437,540.739,538.703,0.0
52105.0,STARLINK-3706,PAYLOAD,2024-03-11 02:56:40,15.08837197,0.0001417,53.2166,109.7793,94.1193,265.9961,5.169e-05,5.35e-06,0.0,0 STARLINK-3706,1 52105U 22029T   24071.12269470  .00000535  00000-0  51690-4 0  9991,2 52105  53.2166 109.7793 0001417  94.1193 265.9961 15.08837197110799,6917.889,95.438,540.734,538.774,0.0
52105.0,STARLINK-3706,PAYLOAD,2024-03-11 09:18:13,15.08840052,0.0001374,53.2164,108.5907,93.0449,267.07,6.452e-05,7.39e-06,0.0,0 STARLINK-3706,1 52105U 22029T   24071.38765285  .00000739  00000-0  64520-4 0  9996,2 52105  53.2164 108.5907 0001374  93.0449 267.0700 15.08840052110838,6917.88,95.438,540.696,538.795,0.0
52105.0,STARLINK-3706,PAYLOAD,2024-03-12 12:19:46,15.08846202,0.0001477,53.2172,103.5378,95.193,264.9231,5.6787e-05,6.16e-06,0.0,0 STARLINK-3706,1 52105U 22029T   24072.51373068  .00000616  00000-0  56787-4 0  9996,2 52105  53.2172 103.5378 0001477  95.1930 264.9231 15.08846202111004,6917.861,95.437,540.748,538.705,0.0
52105.0,STARLINK-3706,PAYLOAD,2024-03-12 18:41:19,15.08841204,0.0001239,53.2155,102.3455,79.6822,280.431,6.9157e-05,8.13e-06,0.0,0 STARLINK-3706,1 52105U 22029T   24072.77869339  .00000813  00000-0  69157-4 0  9999,2 52105  53.2155 102.3455 0001239  79.6822 280.4310 15.08841204111043,6917.877,95.437,540.599,538.885,0.0
52105.0,STARLINK-3706,PAYLOAD,2024-03-13 08:59:47,15.08835973,0.0001349,53.2169,99.6722,92.6779,267.4367,8.0495e-06,-1.6e-06,0.0,0 STARLINK-3706,1 52105U 22029T   24073.37485945 -.00000160  00000-0  80495-5 0  9998,2 52105  53.2169  99.6722 0001349  92.6779 267.4367 15.08835973111134,6917.893,95.438,540.691,538.824,0.0
52105.0,STARLINK-3706,PAYLOAD,2024-03-13 18:32:06,15.08837018,0.0001387,53.2173,97.8879,92.8689,267.2462,3.1832e-05,2.19e-06,0.0,0 STARLINK-3706,1 52105U 22029T   24073.77229907  .00000219  00000-0  31832-4 0  9990,2 52105  53.2173  97.8879 0001387  92.8689 267.2462 15.08837018111198,6917.89,95.438,540.714,538.795,0.0
52105.0,STARLINK-3706,PAYLOAD,2024-03-14 05:39:48,15.08838012,0.000135,53.2173,95.8056,91.6295,268.4852,5.149e-05,5.32e-06,0.0,0 STARLINK-3706,1 52105U 22029T   24074.23597847  .00000532  00000-0  51490-4 0  9993,2 52105  53.2173  95.8056 0001350  91.6295 268.4852 15.08838012111262,6917.886,95.438,540.685,538.818,0.0
52105.0,STARLINK-3706,PAYLOAD,2024-03-14 08:50:34,15.0884326,0.0001382,53.217,95.2114,89.9714,270.1437,2.1199e-05,4.9e-07,0.0,0 STARLINK-3706,1 52105U 22029T   24074.36845666  .00000049  00000-0  21199-4 0  9998,2 52105  53.2170  95.2114 0001382  89.9714 270.1437 15.08843260111281,6917.87,95.437,540.691,538.779,0.0
52105.0,STARLINK-3706,PAYLOAD,2024-03-15 08:41:22,15.08836425,0.0001352,53.2168,90.7506,89.5336,270.5811,3.7789e-05,3.14e-06,0.0,0 STARLINK-3706,1 52105U 22029T   24075.36206209  .00000314  00000-0  37789-4 0  9990,2 52105  53.2168  90.7506 0001352  89.5336 270.5811 15.08836425111438,6917.891,95.438,540.692,538.821,0.0
52105.0,STARLINK-3706,PAYLOAD,2024-03-16 06:56:45,15.08842243,0.0001635,53.2172,86.5894,71.2008,288.9161,6.9493e-05,8.18e-06,0.0,0 STARLINK-3706,1 52105U 22029T   24076.28941971  .00000818  00000-0  69493-4 0  9990,2 52105  53.2172  86.5894 0001635  71.2008 288.9161 15.08842243111575,6917.874,95.437,540.87,538.607,0.0
52105.0,STARLINK-3706,PAYLOAD,2024-03-17 05:12:09,15.08839147,0.0001494,53.2168,82.425,78.8592,281.2568,4.5037e-05,4.29e-06,0.0,0 STARLINK-3706,1 52105U 22029T   24077.21678175  .00000429  00000-0  45037-4 0  9993,2 52105  53.2168  82.4250 0001494  78.8592 281.2568 15.08839147111717,6917.883,95.438,540.782,538.714,0.0
52105.0,STARLINK-3706,PAYLOAD,2024-03-17 06:47:33,15.08840097,0.0001513,53.2166,82.1276,78.3103,281.8059,5.3442e-05,5.63e-06,0.0,0 STARLINK-3706,1 52105U 22029T   24077.28302098  .00000563  00000-0  53442-4 0  9996,2 52105  53.2166  82.1276 0001513  78.3103 281.8059 15.08840097111723,6917.88,95.438,540.792,538.698,0.0
52105.0,STARLINK-3706,PAYLOAD,2024-03-18 06:38:20,15.08839851,0.0001617,53.2177,77.6668,96.9185,263.1991,9.3164e-06,-1.4e-06,0.0,0 STARLINK-3706,1 52105U 22029T   24078.27662188 -.00000140  00000-0  93164-5 0  9993,2 52105  53.2177  77.6668 0001617  96.9185 263.1991 15.08839851111870,6917.881,95.438,540.864,538.627,0.0
52105.0,STARLINK-3706,PAYLOAD,2024-03-19 06:29:06,15.08842504,0.0001683,53.2181,73.2076,103.8911,256.2269,8.0161e-05,9.88e-06,0.0,0 STARLINK-3706,1 52105U 22029T   24079.27021888  .00000988  00000-0  80161-4 0  9991,2 52105  53.2181  73.2076 0001683 103.8911 256.2269 15.08842504112026,6917.873,95.437,540.902,538.573,0.0
52105.0,STARLINK-3706,PAYLOAD,2024-03-19 23:58:21,15.08840837,0.0001689,53.2184,69.937,103.3222,256.7958,6.7056e-05,7.79e-06,0.0,0 STARLINK-3706,1 52105U 22029T   24079.99886036  .00000779  00000-0  67056-4 0  9990,2 52105  53.2184  69.9370 0001689 103.3222 256.7958 15.08840837112133,6917.878,95.438,540.911,538.574,0.0
52105.0,STARLINK-3706,PAYLOAD,2024-03-20 06:19:53,15.0884648,0.0001635,53.2184,68.7459,103.7214,256.396,8.9885e-05,1.143e-05,0.0,0 STARLINK-3706,1 52105U 22029T   24080.26381596  .00001143  00000-0  89885-4 0  9993,2 52105  53.2184  68.7459 0001635 103.7214 256.3960 15.08846480112177,6917.861,95.437,540.857,538.595,0.0
52105.0,STARLINK-3706,PAYLOAD,2024-03-21 04:35:18,15.08836934,0.0001795,53.2176,64.5806,123.5128,236.6035,-3.8196e-05,-8.96e-06,0.0,0 STARLINK-3706,1 52105U 22029T   24081.19118636 -.00000896  00000-0 -38196-4 0  9994,2 52105  53.2176  64.5806 0001795 123.5128 236.6035 15.08836934112312,6917.89,95.438,540.997,538.513,0.0
52105.0,STARLINK-3706,PAYLOAD,2024-03-21 09:21:28,15.08836087,0.0001497,53.2174,63.6892,107.8304,252.2852,-1.3634e-05,-5.05e-06,0.0,0 STARLINK-3706,1 52105U 22029T   24081.38990841 -.00000505  00000-0 -13634-4 0  9998,2 52105  53.2174  63.6892 0001497 107.8304 252.2852 15.08836087112348,6917.892,95.438,540.793,538.722,0.0
52105.0,STARLINK-3706,PAYLOAD,2024-03-21 15:43:00,15.0883688,0.0001461,53.2176,62.4984,93.3397,266.7762,1.2301e-05,-9.2e-07,0.0,0 STARLINK-3706,1 52105U 22029T   24081.65486827 -.00000092  00000-0  12301-4 0  9992,2 52105  53.2176  62.4984 0001461  93.3397 266.7762 15.08836880112386,6917.89,95.438,540.766,538.744,0.0
52105.0,STARLINK-3706,PAYLOAD,2024-03-22 04:26:05,15.08845988,0.0001362,53.2173,60.1188,97.9571,262.1575,3.2614e-05,2.31e-06,0.0,0 STARLINK-3706,1 52105U 22029T   24082.18478231  .00000231  00000-0  32614-4 0  9994,2 52105  53.2173  60.1188 0001362  97.9571 262.1575 15.08845988112468,6917.862,95.437,540.669,538.785,0.0
